QIANFAN-9               
1 60387U 24140J   25337.35232736  .00000107  00000+0  14639-3 0  9999
2 60387  88.9753 300.3082 0014670 220.7898 139.2156 13.50979501 66061
QIANFAN-10              
1 60388U 24140K   25337.20838952  .00000078  00000+0  10169-3 0  9997
2 60388  88.9763 299.6692 0013714 195.9781 164.0939 13.50979932 66177
QIANFAN-11              
1 60389U 24140L   25337.31951467  .00000091  00000+0  12191-3 0  9999
2 60389  88.9689 300.2521 0012712 219.9017 140.1201 13.50976259 65840
QIANFAN-12              
1 60390U 24140M   25337.34001549  .00000098  00000+0  13351-3 0  9997
2 60390  88.9732 300.2892 0011379 228.7277 131.2895 13.50976961 65970
QIANFAN-13              
1 60391U 24140N   25337.31121613  .00000096  00000+0  13020-3 0  9991
2 60391  88.9744 300.3910 0011154 231.8417 128.1730 13.50977474 65993
QIANFAN-14              
1 60392U 24140P   25337.33580550  .00000093  00000+0  12573-3 0  9992
2 60392  88.9723 300.2881 0014837 232.6203 127.3597 13.50977031 66004
QIANFAN-15              
1 60393U 24140Q   25337.34408690  .00000108  00000+0  14809-3 0  9999
2 60393  88.9746 300.2414 0010911 215.6302 144.4122 13.50975861 65992
QIANFAN-16              
1 60394U 24140R   25337.33188640  .00000093  00000+0  12491-3 0  9997
2 60394  88.9749 300.3626 0012732 236.5971 123.3962 13.50975930 65905
